NORAD_CAT_ID,OBJECT_NAME,OBJECT_TYPE,EPOCH,MEAN_MOTION,ECCENTRICITY,INCLINATION,RA_OF_ASC_NODE,ARG_OF_PERICENTER,MEAN_ANOMALY,BSTAR,MEAN_MOTION_DOT,MEAN_MOTION_DDOT,TLE_LINE0,TLE_LINE1,TLE_LINE2,SEMIMAJOR_AXIS,PERIOD,APOGEE,PERIGEE,DECAYED
52281.0,STARLINK-3779,PAYLOAD,2022-11-02 10:00:27,15.08832811,0.0001921,53.2194,200.6121,43.7866,316.3278,0.00010057,1.313e-05,0.0,0 STARLINK-3779,1 52281U 22041W   22306.41699031  .00001313  00000-0  10057-3 0  9997,2 52281  53.2194 200.6121 0001921  43.7866 316.3278 15.08832811 30913,6917.901999999999,95.438,541.096,538.438,0.0
52281.0,STARLINK-3779,PAYLOAD,2022-11-03 01:54:19,15.08833167,0.0002161,53.2207,197.6377,44.5901,315.5265,6.484e-05,7.44e-06,0.0,0 STARLINK-3779,1 52281U 22041W   22307.07939322  .00000744  00000-0  64840-4 0  9997,2 52281  53.2207 197.6377 0002161  44.5901 315.5265 15.08833167 29798,6917.901,95.438,541.261,538.271,0.0
52281.0,STARLINK-3779,PAYLOAD,2022-11-03 17:48:10,15.08841019,0.0002202,53.2189,194.6655,44.4246,315.6923,8.0416e-05,9.92e-06,0.0,0 STARLINK-3779,1 52281U 22041W   22307.74178698  .00000992  00000-0  80416-4 0  9994,2 52281  53.2189 194.6655 0002202  44.4246 315.6923 15.08841019 31116,6917.877,95.437,541.266,538.219,0.0
52281.0,STARLINK-3779,PAYLOAD,2022-11-04 01:45:05,15.08851172,0.0002246,53.2191,193.1782,44.8465,315.2708,0.0001366,1.887e-05,0.0,0 STARLINK-3779,1 52281U 22041W   22308.07297791  .00001887  00000-0  13660-3 0  9997,2 52281  53.2191 193.1782 0002246  44.8465 315.2708 15.08851172 31162,6917.846,95.437,541.265,538.1569999999998,0.0
52281.0,STARLINK-3779,PAYLOAD,2022-11-04 09:42:00,15.08852751,0.0002251,53.219,191.6915,45.0907,315.0268,0.00013827,1.914e-05,0.0,0 STARLINK-3779,1 52281U 22041W   22308.40417526  .00001914  00000-0  13827-3 0  9990,2 52281  53.2190 191.6915 0002251  45.0907 315.0268 15.08852751 29993,6917.840999999999,95.437,541.264,538.149,0.0
52281.0,STARLINK-3779,PAYLOAD,2022-11-04 16:03:33,15.08847068,0.0002229,53.2173,190.503,48.3732,311.745,0.0001481,2.07e-05,0.0,0 STARLINK-3779,1 52281U 22041W   22308.66913731  .00002070  00000-0  14810-3 0  9994,2 52281  53.2173 190.5030 0002229  48.3732 311.7450 15.08847068 30035,6917.859,95.437,541.266,538.182,0.0
52281.0,STARLINK-3779,PAYLOAD,2022-11-05 01:35:52,15.08846238,0.0002055,53.2191,188.7184,42.1664,317.9486,3.964e-05,3.43e-06,0.0,0 STARLINK-3779,1 52281U 22041W   22309.06658048  .00000343  00000-0  39640-4 0  9996,2 52281  53.2191 188.7184 0002055  42.1664 317.9486 15.08846238 30098,6917.861,95.437,541.148,538.305,0.0
52281.0,STARLINK-3779,PAYLOAD,2022-11-05 15:54:22,15.0883102,0.0002026,53.2184,186.0415,46.6672,313.4489,-0.00016894,-2.975e-05,0.0,0 STARLINK-3779,1 52281U 22041W   22309.66275951 -.00002975  00000-0 -16894-3 0  9990,2 52281  53.2184 186.0415 0002026  46.6672 313.4489 15.08831020 31407,6917.908,95.438,541.174,538.371,0.0
52281.0,STARLINK-3779,PAYLOAD,2022-11-06 01:26:42,15.0881707,0.0002033,53.2174,184.2565,56.367,303.7516,-0.00026144,-4.444e-05,0.0,0 STARLINK-3779,1 52281U 22041W   22310.06021430 -.00004444  00000-0 -26144-3 0  9999,2 52281  53.2174 184.2565 0002033  56.3670 303.7516 15.08817070 31464,6917.95,95.439,541.222,538.409,0.0
52281.0,STARLINK-3779,PAYLOAD,2022-11-06 09:23:36,15.08834825,0.0001845,53.2194,182.7716,39.0114,321.1011,-8.3696e-05,-1.62e-05,0.0,0 STARLINK-3779,1 52281U 22041W   22310.39139937 -.00001620  00000-0 -83696-4 0  9996,2 52281  53.2194 182.7716 0001845  39.0114 321.1011 15.08834825 31515,6917.896,95.438,541.038,538.485,0.0
52281.0,STARLINK-3779,PAYLOAD,2022-11-07 15:35:57,15.08792573,0.000224,53.2197,177.1219,44.7839,315.3334,0.00061775,9.544e-05,0.0,0 STARLINK-3779,1 52281U 22041W   22311.64997064  .00009544  00000-0  61775-3 0  9992,2 52281  53.2197 177.1219 0002240  44.7839 315.3334 15.08792573 31708,6918.025,95.441,541.44,538.341,0.0
52281.0,STARLINK-3779,PAYLOAD,2022-11-08 01:08:15,15.0883399,0.0002089,53.2189,175.3347,40.5346,319.5802,0.00037903,5.748e-05,0.0,0 STARLINK-3779,1 52281U 22041W   22312.04739961  .00005748  00000-0  37903-3 0  9995,2 52281  53.2189 175.3347 0002089  40.5346 319.5802 15.08833990 31760,6917.899,95.438,541.2090000000002,538.319,0.0
52281.0,STARLINK-3779,PAYLOAD,2022-11-08 07:29:47,15.08838996,0.0002035,53.219,174.1454,50.6936,309.4236,0.00026971,4.007e-05,0.0,0 STARLINK-3779,1 52281U 22041W   22312.31235879  .00004007  00000-0  26971-3 0  9994,2 52281  53.2190 174.1454 0002035  50.6936 309.4236 15.08838996 30585,6917.8830000000025,95.438,541.156,538.341,0.0
52281.0,STARLINK-3779,PAYLOAD,2022-11-09 07:20:33,15.08853176,0.0002174,53.219,169.6851,50.6789,309.4395,0.00017471,2.494e-05,0.0,0 STARLINK-3779,1 52281U 22041W   22313.30594747  .00002494  00000-0  17471-3 0  9999,2 52281  53.2190 169.6851 0002174  50.6789 309.4395 15.08853176 30735,6917.84,95.437,541.2090000000002,538.201,0.0
52281.0,STARLINK-3779,PAYLOAD,2022-11-09 20:03:39,15.08846203,0.000196,53.2193,167.3064,49.534,310.5823,-8.384399999999999e-05,-1.623e-05,0.0,0 STARLINK-3779,1 52281U 22041W   22313.83587241 -.00001623  00000-0 -83844-4 0  9991,2 52281  53.2193 167.3064 0001960  49.5340 310.5823 15.08846203 32038,6917.861,95.437,541.082,538.371,0.0
52281.0,STARLINK-3779,PAYLOAD,2022-11-09 21:39:03,15.08836551,0.0002356,53.2209,167.0081,44.2858,315.8323,-9.5281e-05,-1.804e-05,0.0,0 STARLINK-3779,1 52281U 22041W   22313.90212425 -.00001804  00000-0 -95281-4 0  9997,2 52281  53.2209 167.0081 0002356  44.2858 315.8323 15.08836551 30821,6917.891,95.438,541.386,538.126,0.0
52281.0,STARLINK-3779,PAYLOAD,2022-11-10 00:49:50,15.08818592,0.0001911,53.2192,166.4156,45.9705,314.1444,-0.00026486,-4.498e-05,0.0,0 STARLINK-3779,1 52281U 22041W   22314.03461693 -.00004498  00000-0 -26486-3 0  9997,2 52281  53.2192 166.4156 0001911  45.9705 314.1444 15.08818592 32062,6917.946,95.439,541.133,538.489,0.0
52281.0,STARLINK-3779,PAYLOAD,2022-11-10 07:11:23,15.08824709,0.0001866,53.2189,165.2279,48.8594,311.2559,-0.00026006,-4.423e-05,0.0,0 STARLINK-3779,1 52281U 22041W   22314.29957563 -.00004423  00000-0 -26006-3 0  9997,2 52281  53.2189 165.2279 0001866  48.8594 311.2559 15.08824709 30888,6917.927,95.439,541.0830000000002,538.501,0.0
52281.0,STARLINK-3779,PAYLOAD,2022-11-10 18:19:04,15.0883396,0.0002008,53.2192,163.1437,38.4508,321.6627,1.4216e-05,-6.2e-07,0.0,0 STARLINK-3779,1 52281U 22041W   22314.76324887 -.00000062  00000-0  14216-4 0  9991,2 52281  53.2192 163.1437 0002008  38.4508 321.6627 15.08833960 32178,6917.899,95.438,541.153,538.375,0.0
52281.0,STARLINK-3779,PAYLOAD,2022-11-10 19:54:27,15.08833893,0.0001961,53.2199,162.8479,43.0781,317.0364,2.9488000000000013e-05,1.81e-06,0.0,0 STARLINK-3779,1 52281U 22041W   22314.82948876  .00000181  00000-0  29488-4 0  9996,2 52281  53.2199 162.8479 0001961  43.0781 317.0364 15.08833893 30966,6917.899,95.438,541.121,538.4069999999998,0.0
52281.0,STARLINK-3779,PAYLOAD,2022-11-11 07:02:09,15.08819517,0.0002065,53.2196,160.7669,45.8302,314.2859,0.00029772,4.451e-05,0.0,0 STARLINK-3779,1 52281U 22041W   22315.29316409  .00004451  00000-0  29772-3 0  9998,2 52281  53.2196 160.7669 0002065  45.8302 314.2859 15.08819517 31030,6917.943,95.439,541.237,538.379,0.0
52281.0,STARLINK-3779,PAYLOAD,2022-11-11 21:20:37,15.08828679,0.000205,53.2195,158.0912,46.358,313.7581,0.00036176,5.472e-05,0.0,0 STARLINK-3779,1 52281U 22041W   22315.88932491  .00005472  00000-0  36176-3 0  9998,2 52281  53.2195 158.0912 0002050  46.3580 313.7581 15.08828679 31123,6917.915,95.438,541.198,538.362,0.0
52281.0,STARLINK-3779,PAYLOAD,2022-11-12 00:31:23,15.088498,0.0002291,53.2194,157.4964,37.8921,322.2232,0.0001431999999999,1.992e-05,0.0,0 STARLINK-3779,1 52281U 22041W   22316.02179915  .00001992  00000-0  14320-3 0  9999,2 52281  53.2194 157.4964 0002291  37.8921 322.2232 15.08849800 32367,6917.85,95.437,541.3,538.131,0.0
52281.0,STARLINK-3779,PAYLOAD,2022-11-12 13:14:28,15.08838874,0.000158,53.2184,155.1191,36.78,323.3301,0.00032116,4.827e-05,0.0,0 STARLINK-3779,1 52281U 22041W   22316.55172234  .00004827  00000-0  32116-3 0  9997,2 52281  53.2184 155.1191 0001580  36.7800 323.3301 15.08838874 32444,6917.884,95.438,540.842,538.656,0.0
52281.0,STARLINK-3779,PAYLOAD,2022-11-12 19:36:01,15.08842979,0.0002005,53.2182,153.9284,46.8671,313.2488,7.8142e-05,9.56e-06,0.0,0 STARLINK-3779,1 52281U 22041W   22316.81668431  .00000956  00000-0  78142-4 0  9994,2 52281  53.2182 153.9284 0002005  46.8671 313.2488 15.08842979 31266,6917.871,95.437,541.123,538.349,0.0
52281.0,STARLINK-3779,PAYLOAD,2022-11-12 22:46:47,15.08843586,0.0002015,53.2182,153.3337,47.1381,312.978,7.946199999999999e-05,9.77e-06,0.0,0 STARLINK-3779,1 52281U 22041W   22316.94916375  .00000977  00000-0  79462-4 0  9990,2 52281  53.2182 153.3337 0002015  47.1381 312.9780 15.08843586 31280,6917.869000000002,95.437,541.128,538.34,0.0
52281.0,STARLINK-3779,PAYLOAD,2022-11-13 19:26:49,15.08835935,0.0002025,53.2191,149.4679,48.6145,311.5021,-3.2648e-05,-8.08e-06,0.0,0 STARLINK-3779,1 52281U 22041W   22317.81029047 -.00000808  00000-0 -32648-4 0  9998,2 52281  53.2191 149.4679 0002025  48.6145 311.5021 15.08835935 32632,6917.893,95.438,541.159,538.357,0.0
52281.0,STARLINK-3779,PAYLOAD,2022-11-14 00:12:58,15.0883703,0.0001968,53.219,148.5754,48.6053,311.5108,-7.7351e-05,-1.519e-05,0.0,0 STARLINK-3779,1 52281U 22041W   22318.00901080 -.00001519  00000-0 -77351-4 0  9996,2 52281  53.2190 148.5754 0001968  48.6053 311.5108 15.08837030 31440,6917.889,95.438,541.116,538.393,0.0
52281.0,STARLINK-3779,PAYLOAD,2022-11-14 17:42:12,15.08836875,0.0001996,53.2188,145.3047,45.74,314.3756,1.7502999999999998e-05,-1e-07,0.0,0 STARLINK-3779,1 52281U 22041W   22318.73764811 -.00000010  00000-0  17503-4 0  9992,2 52281  53.2188 145.3047 0001996  45.7400 314.3756 15.08836875 31550,6917.89,95.438,541.136,538.374,0.0
